H1 CPF  1  DGF 2022 07 30 11  7111 larets     NONE      
H2   304206 5557    27944 2022 07 30 00 00 00 2022 08 06 00 00 00    30 1 1  0 0 0
H5  0.0650
H9
10 0 59796  25200.000000  0      -2251202.350       5237836.815       4145881.448
10 0 59796  25230.000000  0      -2253363.925       5376181.066       3964282.588
10 0 59796  25260.000000  0      -2252637.721       5509053.828       3778617.099
10 0 59796  25290.000000  0      -2249048.678       5636307.071       3589075.331
10 0 59796  25320.000000  0      -2242625.309       5757798.655       3395851.655
10 0 59796  25350.000000  0      -2233399.646       5873392.491       3199144.262
10 0 59796  25380.000000  0      -2221407.185       5982958.708       2999154.955
10 0 59796  25410.000000  0      -2206686.818       6086373.805       2796088.936
10 0 59796  25440.000000  0      -2189280.767       6183520.797       2590154.592
10 0 59796  25470.000000  0      -2169234.515       6274289.356       2381563.271
10 0 59796  25500.000000  0      -2146596.728       6358575.940       2170529.061
10 0 59796  25530.000000  0      -2121419.171       6436283.917       1957268.559
10 0 59796  25560.000000  0      -2093756.630       6507323.678       1742000.645
10 0 59796  25590.000000  0      -2063666.818       6571612.749       1524946.250
10 0 59796  25620.000000  0      -2031210.288       6629075.885       1306328.119
10 0 59796  25650.000000  0      -1996450.334       6679645.168       1086370.577
10 0 59796  25680.000000  0      -1959452.896       6723260.079        865299.284
10 0 59796  25710.000000  0      -1920286.454       6759867.580        643340.999
10 0 59796  25740.000000  0      -1879021.928       6789422.171        420723.340
10 0 59796  25770.000000  0      -1835732.566       6811885.950        197674.539
10 0 59796  25800.000000  0      -1790493.839       6827228.661        -25576.801
10 0 59796  25830.000000  0      -1743383.325       6835427.731       -248801.950
10 0 59796  25860.000000  0      -1694480.594       6836468.302       -471772.299
10 0 59796  25890.000000  0      -1643867.087       6830343.250       -694259.605
10 0 59796  25920.000000  0      -1591625.994       6817053.191       -916036.241
10 0 59796  25950.000000  0      -1537842.131       6796606.470      -1136875.440
10 0 59796  25980.000000  0      -1482601.815       6769019.150      -1356551.529
10 0 59796  26010.000000  0      -1425992.741       6734314.988      -1574840.166
10 0 59796  26040.000000  0      -1368103.853       6692525.408      -1791518.575
10 0 59796  26070.000000  0      -1309025.222       6643689.461      -2006365.777
10 0 59796  26100.000000  0      -1248847.911       6587853.776      -2219162.818
10 0 59796  26130.000000  0      -1187663.851       6525072.501      -2429692.998
10 0 59796  26160.000000  0      -1125565.710       6455407.245      -2637742.083
10 0 59796  26190.000000  0      -1062646.764       6378927.003      -2843098.532
10 0 59796  26220.000000  0       -999000.768       6295708.078      -3045553.709
10 0 59796  26250.000000  0       -934721.826       6205833.996      -3244902.095
10 0 59796  26280.000000  0       -869904.264       6109395.405      -3440941.496
10 0 59796  26310.000000  0       -804642.499       6006489.978      -3633473.252
10 0 59796  26340.000000  0       -739030.912       5897222.293      -3822302.431
10 0 59796  26370.000000  0       -673163.723       5781703.720      -4007238.024
10 0 59796  26400.000000  0       -607134.863       5660052.288      -4188093.136
10 0 59796  26430.000000  0       -541037.851       5532392.559      -4364685.165
10 0 59796  26460.000000  0       -474965.669       5398855.483      -4536835.983
10 0 59796  26490.000000  0       -409010.640       5259578.257      -4704372.108
10 0 59796  26520.000000  0       -343264.307       5114704.169      -4867124.870
10 0 59796  26550.000000  0       -277817.315       4964382.448      -5024930.576
10 0 59796  26580.000000  0       -212759.295       4808768.091      -5177630.667
10 0 59796  26610.000000  0       -148178.745       4648021.700      -5325071.869
10 0 59796  26640.000000  0        -84162.922       4482309.300      -5467106.336
10 0 59796  26670.000000  0        -20797.728       4311802.165      -5603591.789
10 0 59796  26700.000000  0         41832.395       4136676.626      -5734391.648
10 0 59796  26730.000000  0        103644.574       3957113.885      -5859375.160
10 0 59796  26760.000000  0        164557.601       3773299.817      -5978417.514
10 0 59796  26790.000000  0        224492.039       3585424.772      -6091399.955
10 0 59796  26820.000000  0        283370.313       3393683.377      -6198209.891
10 0 59796  26850.000000  0        341116.804       3198274.325      -6298740.992
10 0 59796  26880.000000  0        397657.941       2999400.169      -6392893.286
10 0 59796  26910.000000  0        452922.286       2797267.112      -6480573.240
10 0 59796  26940.000000  0        506840.620       2592084.793      -6561693.850
10 0 59796  26970.000000  0        559346.026       2384066.068      -6636174.710
10 0 59796  27000.000000  0        610373.964       2173426.796      -6703942.086
10 0 59796  27030.000000  0        659862.344       1960385.613      -6764928.981
10 0 59796  27060.000000  0        707751.603       1745163.704      -6819075.189
10 0 59796  27090.000000  0        753984.761       1527984.579      -6866327.349
10 0 59796  27120.000000  0        798507.493       1309073.843      -6906638.983
10 0 59796  27150.000000  0        841268.184       1088658.968      -6939970.536
10 0 59796  27180.000000  0        882217.988        866969.064      -6966289.414
10 0 59796  27210.000000  0        921310.882        644234.644      -6985570.007
10 0 59796  27240.000000  0        958503.711        420687.389      -6997793.710
10 0 59796  27270.000000  0        993756.237        196559.909      -7002948.937
10 0 59796  27300.000000  0       1027031.178        -27914.490      -7001031.124
10 0 59796  27330.000000  0       1058294.241       -252502.039      -6992042.730
10 0 59796  27360.000000  0       1087514.163       -476968.747      -6975993.230
10 0 59796  27390.000000  0       1114662.735       -701080.629      -6952899.106
10 0 59796  27420.000000  0       1139714.828       -924603.947      -6922783.831
10 0 59796  27450.000000  0       1162648.420      -1147305.446      -6885677.843
10 0 59796  27480.000000  0       1183444.608      -1368952.582      -6841618.516
10 0 59796  27510.000000  0       1202087.625      -1589313.765      -6790650.132
10 0 59796  27540.000000  0       1218564.853      -1808158.584      -6732823.834
10 0 59796  27570.000000  0       1232866.829      -2025258.048      -6668197.592
10 0 59796  27600.000000  0       1244987.249      -2240384.816      -6596836.141
10 0 59796  27630.000000  0       1254922.967      -2453313.431      -6518810.933
10 0 59796  27660.000000  0       1262673.991      -2663820.555      -6434200.069
10 0 59796  27690.000000  0       1268243.470      -2871685.197      -6343088.234
10 0 59796  27720.000000  0       1271637.685      -3076688.952      -6245566.616
10 0 59796  27750.000000  0       1272866.025      -3278616.221      -6141732.827
10 0 59796  27780.000000  0       1271940.973      -3477254.439      -6031690.803
10 0 59796  27810.000000  0       1268878.077      -3672394.297      -5915550.718
10 0 59796  27840.000000  0       1263695.922      -3863829.962      -5793428.876
10 0 59796  27870.000000  0       1256416.103      -4051359.287      -5665447.605
10 0 59796  27900.000000  0       1247063.184      -4234784.031      -5531735.148
10 0 59796  27930.000000  0       1235664.663      -4413910.062      -5392425.540
10 0 59796  27960.000000  0       1222250.927      -4588547.573      -5247658.491
10 0 59796  27990.000000  0       1206855.203      -4758511.278      -5097579.256
10 0 59796  28020.000000  0       1189513.510      -4923620.623      -4942338.498
10 0 59796  28050.000000  0       1170264.602      -5083699.976      -4782092.150
10 0 59796  28080.000000  0       1149149.908      -5238578.824      -4617001.263
10 0 59796  28110.000000  0       1126213.474      -5388091.963      -4447231.856
10 0 59796  28140.000000  0       1101501.894      -5532079.675      -4272954.755
10 0 59796  28170.000000  0       1075064.242      -5670387.909      -4094345.427
10 0 59796  28200.000000  0       1046952.000      -5802868.454      -3911583.817
10 0 59796  28230.000000  0       1017218.985      -5929379.103      -3724854.168
10 0 59796  28260.000000  0        985921.266      -6049783.817      -3534344.848
10 0 59796  28290.000000  0        953117.087      -6163952.878      -3340248.162
10 0 59796  28320.000000  0        918866.779      -6271763.042      -3142760.166
10 0 59796  28350.000000  0        883232.676      -6373097.679      -2942080.471
10 0 59796  28380.000000  0        846279.023      -6467846.913      -2738412.051
10 0 59796  28410.000000  0        808071.885      -6555907.748      -2531961.034
10 0 59796  28440.000000  0        768679.050      -6637184.196      -2322936.497
10 0 59796  28470.000000  0        728169.933      -6711587.385      -2111550.258
10 0 59796  28500.000000  0        686615.470      -6779035.674      -1898016.659
10 0 59796  28530.000000  0        644088.020      -6839454.743      -1682552.347
10 0 59796  28560.000000  0        600661.259      -6892777.691      -1465376.056
10 0 59796  28590.000000  0        556410.072      -6938945.111      -1246708.383
10 0 59796  28620.000000  0        511410.445      -6977905.173      -1026771.559
10 0 59796  28650.000000  0        465739.358      -7009613.683       -805789.227
10 0 59796  28680.000000  0        419474.669      -7034034.145       -583986.205
10 0 59796  28710.000000  0        372695.006      -7051137.804       -361588.261
10 0 59796  28740.000000  0        325479.649      -7060903.695       -138821.873
10 0 59796  28770.000000  0        277908.414      -7063318.667         84085.998
99
